QIANFAN-25              
1 61558U 24185G   25202.51667312  .00000265  00000+0  15414-3 0  9997
2 61558  88.9804  94.5308 0009345  49.7106 310.4892 14.05745223 49240
QIANFAN-26              
1 61559U 24185H   25202.51319169  .00000158  00000+0  14533-3 0  9994
2 61559  88.9815  95.3326 0007992  85.0896 275.1183 13.77716134 48816
QIANFAN-27              
1 61560U 24185J   25202.59853641  .00000354  00000+0  13899-3 0  9994
2 61560  88.9804  93.8600 0010315  51.6424 308.5695 14.27113425 49600
QIANFAN-28              
1 61561U 24185K   25202.57286386  .00000572  00000+0  22614-3 0  9996
2 61561  88.9823  93.8552 0009331  53.1421 307.0627 14.27665693 49606
QIANFAN-29              
1 61562U 24185L   25202.60948128  .00000132  00000+0  18587-3 0  9996
2 61562  88.9811  96.2145 0011976 102.9611 257.2878 13.50951864 48337
QIANFAN-30              
1 61563U 24185M   25202.62335523  .00000092  00000+0  12592-3 0  9993
2 61563  88.9816  95.6872 0009696  89.8091 270.4171 13.49924052 48626
QIANFAN-31              
1 61564U 24185N   25202.62691991  .00000112  00000+0  13798-3 0  9990
2 61564  88.9798  95.7173 0009368  88.0338 272.1889 13.57901693 48600
QIANFAN-32              
1 61565U 24185P   25202.59780175  .00000125  00000+0  17566-3 0  9991
2 61565  88.9859  95.7803 0011107 111.4585 248.7752 13.50680074 48583
